QZS-1R                  
1 49336U 21096A   24137.19256091 -.00000232  00000+0  00000+0 0  9999
2 49336  35.8816  91.0109 0754180 270.9232  76.9488  1.00270745  9364
